{"type": "FeatureCollection", "features": [ {"type": "Feature", "properties": {"norad_id": 34634, "name": "COSMOS 2251 DEB", "group": "cosmos-2251-debris", "lat": 8.663068916637373, "lon": 35.491808017091635, "alt_km": 729.0842477390934, "timestamp": "2025-12-13T18:50:04.825198+00:00", "meta": {"OBJECT_NAME": "COSMOS 2251 DEB", "OBJECT_ID": "1993-036XF", "EPOCH": "2025-12-13T04:14:38.740992", "MEAN_MOTION": 14.55661347, "ECCENTRICITY": 0.00441414, "INCLINATION": 74.053, "RA_OF_ASC_NODE": 34.1453, "ARG_OF_PERICENTER": 141.4164, "MEAN_ANOMALY": 283.5544, "EPHEMERIS_TYPE": 0, "CLASSIFICATION_TYPE": "U", "NORAD_CAT_ID": 34634, "ELEMENT_SET_NO": 999, "REV_AT_EPOCH": 88788, "BSTAR": 0.00050718164, "MEAN_MOTION_DOT": 2.216e-05, "MEAN_MOTION_DDOT": 0}, "tle": {"line1": "1 34634U 93036XF  25347.17683728  .00002216  00000+0  50718-3 0  9998", "line2": "2 34634  74.0530  34.1453 0044141 141.4164 283.5544 14.55661347887888"}}, "geometry": {"type": "Point", "coordinates": [35.491808017091635, 8.663068916637373]}}, {"type": "Feature", "properties": {"norad_id": 34635, "name": "COSMOS 2251 DEB", "group": "cosmos-2251-debris", "lat": -71.80112271709689, "lon": 8.215307140877956, "alt_km": 689.2119516700832, "timestamp": "2025-12-13T18:50:04.825209+00:00", "meta": {"OBJECT_NAME": "COSMOS 2251 DEB", "OBJECT_ID": "1993-036XG", "EPOCH": "2025-12-13T08:02:58.253280", "MEAN_MOTION": 14.68286135, "ECCENTRICITY": 0.00284977, "INCLINATION": 74.0452, "RA_OF_ASC_NODE": 69.5631, "ARG_OF_PERICENTER": 138.0427, "MEAN_ANOMALY": 286.2483, "EPHEMERIS_TYPE": 0, "CLASSIFICATION_TYPE": "U", "NORAD_CAT_ID": 34635, "ELEMENT_SET_NO": 999, "REV_AT_EPOCH": 73228, "BSTAR": 0.0020757851, "MEAN_MOTION_DOT": 0.00012039, "MEAN_MOTION_DDOT": 0}, "tle": {"line1": "1 34635U 93036XG  25347.33539645  .00012039  00000+0  20758-2 0  9999", "line2": "2 34635  74.0452  69.5631 0028497 138.0427 286.2483 14.68286135732289"}}, "geometry": {"type": "Point", "coordinates": [8.215307140877956, -71.80112271709689]}}, {"type": "Feature", "properties": {"norad_id": 34637, "name": "COSMOS 2251 DEB", "group": "cosmos-2251-debris", "lat": 69.76119202632601, "lon": 150.03498226008423, "alt_km": 686.6927405193646, "timestamp": "2025-12-13T18:50:04.825220+00:00", "meta": {"OBJECT_NAME": "COSMOS 2251 DEB", "OBJECT_ID": "1993-036XJ", "EPOCH": "2025-12-12T18:30:08.235360", "MEAN_MOTION": 14.60099442, "ECCENTRICITY": 0.00497956, "INCLINATION": 74.0491, "RA_OF_ASC_NODE": 101.097, "ARG_OF_PERICENTER": 171.5249, "MEAN_ANOMALY": 339.4686, "EPHEMERIS_TYPE": 0, "CLASSIFICATION_TYPE": "U", "NORAD_CAT_ID": 34637, "ELEMENT_SET_NO": 999, "REV_AT_EPOCH": 88527, "BSTAR": 0.001546283, "MEAN_MOTION_DOT": 7.545e-05, "MEAN_MOTION_DDOT": 0}, "tle": {"line1": "1 34637U 93036XJ  25346.77092865  .00007545  00000+0  15463-2 0  9999", "line2": "2 34637  74.0491 101.0970 0049795 171.5249 339.4686 14.60099442885279"}}, "geometry": {"type": "Point", "coordinates": [150.03498226008423, 69.76119202632601]}}, {"type": "Feature", "properties": {"norad_id": 34641, "name": "COSMOS 2251 DEB", "group": "cosmos-2251-debris", "lat": 36.70426541828627, "lon": 92.13968266499852, "alt_km": 706.7777829223141, "timestamp": "2025-12-13T18:50:04.825231+00:00", "meta": {"OBJECT_NAME": "COSMOS 2251 DEB", "OBJECT_ID": "1993-036XN", "EPOCH": "2025-12-12T23:21:11.155392", "MEAN_MOTION": 14.5200903, "ECCENTRICITY": 0.00183078, "INCLINATION": 73.8388, "RA_OF_ASC_NODE": 81.2019, "ARG_OF_PERICENTER": 356.0596, "MEAN_ANOMALY": 120.9423, "EPHEMERIS_TYPE": 0, "CLASSIFICATION_TYPE": "U", "NORAD_CAT_ID": 34641, "ELEMENT_SET_NO": 999, "REV_AT_EPOCH": 88259, "BSTAR": 0.0015585494, "MEAN_MOTION_DOT": 6.288e-05, "MEAN_MOTION_DDOT": 0}, "tle": {"line1": "1 34641U 93036XN  25346.97304578  .00006288  00000+0  15585-2 0  9991", "line2": "2 34641  73.8388  81.2019 0018307 356.0596 120.9423 14.52009030882598"}}, "geometry": {"type": "Point", "coordinates": [92.13968266499852, 36.70426541828627]}}, {"type": "Feature", "properties": {"norad_id": 34642, "name": "COSMOS 2251 DEB", "group": "cosmos-2251-debris", "lat": -68.12205978824281, "lon": -67.59457683554952, "alt_km": 994.0432755745724, "timestamp": "2025-12-13T18:50:04.825241+00:00", "meta": {"OBJECT_NAME": "COSMOS 2251 DEB", "OBJECT_ID": "1993-036XP", "EPOCH": "2025-12-13T05:33:40.683168", "MEAN_MOTION": 13.98976497, "ECCENTRICITY": 0.02071361, "INCLINATION": 74.0051, "RA_OF_ASC_NODE": 338.949, "ARG_OF_PERICENTER": 158.7098, "MEAN_ANOMALY": 220.2456, "EPHEMERIS_TYPE": 0, "CLASSIFICATION_TYPE": "U", "NORAD_CAT_ID": 34642, "ELEMENT_SET_NO": 999, "REV_AT_EPOCH": 85300, "BSTAR": 0.0013816671, "MEAN_MOTION_DOT": 2.376e-05, "MEAN_MOTION_DDOT": 0}, "tle": {"line1": "1 34642U 93036XP  25347.23172087  .00002376  00000+0  13817-2 0  9990", "line2": "2 34642  74.0051 338.9490 0207136 158.7098 220.2456 13.98976497853001"}}, "geometry": {"type": "Point", "coordinates": [-67.59457683554952, -68.12205978824281]}}, {"type": "Feature", "properties": {"norad_id": 34671, "name": "COSMOS 2251 DEB", "group": "cosmos-2251-debris", "lat": -17.923858598183, "lon": -42.40488391036094, "alt_km": 667.5972580811122, "timestamp": "2025-12-13T18:50:04.825251+00:00", "meta": {"OBJECT_NAME": "COSMOS 2251 DEB", "OBJECT_ID": "1993-036XR", "EPOCH": "2025-12-12T15:48:42.194880", "MEAN_MOTION": 14.66936189, "ECCENTRICITY": 0.00114275, "INCLINATION": 74.0268, "RA_OF_ASC_NODE": 134.452, "ARG_OF_PERICENTER": 214.7351, "MEAN_ANOMALY": 160.1068, "EPHEMERIS_TYPE": 0, "CLASSIFICATION_TYPE": "U", "NORAD_CAT_ID": 34671, "ELEMENT_SET_NO": 999, "REV_AT_EPOCH": 88296, "BSTAR": 0.0024200207, "MEAN_MOTION_DOT": 0.00013552, "MEAN_MOTION_DDOT": 0}, "tle": {"line1": "1 34671U 93036XR  25346.65882170  .00013552  00000+0  24200-2 0  9994", "line2": "2 34671  74.0268 134.4520 0011427 214.7351 160.1068 14.66936189882965"}}, "geometry": {"type": "Point", "coordinates": [-42.40488391036094, -17.923858598183]}}, {"type": "Feature", "properties": {"norad_id": 34672, "name": "COSMOS 2251 DEB", "group": "cosmos-2251-debris", "lat": -72.56989481217973, "lon": -170.5598972380183, "alt_km": 783.7227653527189, "timestamp": "2025-12-13T18:50:04.825262+00:00", "meta": {"OBJECT_NAME": "COSMOS 2251 DEB", "OBJECT_ID": "1993-036XS", "EPOCH": "2025-12-11T16:16:44.249952", "MEAN_MOTION": 14.36406242, "ECCENTRICITY": 0.00236356, "INCLINATION": 74.0334, "RA_OF_ASC_NODE": 307.539, "ARG_OF_PERICENTER": 19.6523, "MEAN_ANOMALY": 155.1005, "EPHEMERIS_TYPE": 0, "CLASSIFICATION_TYPE": "U", "NORAD_CAT_ID": 34672, "ELEMENT_SET_NO": 999, "REV_AT_EPOCH": 65162, "BSTAR": 0.00043649208, "MEAN_MOTION_DOT": 1.257e-05, "MEAN_MOTION_DDOT": 0}, "tle": {"line1": "1 34672U 93036XS  25345.67828993  .00001257  00000+0  43649-3 0  9997", "line2": "2 34672  74.0334 307.5390 0023635  19.6523 155.1005 14.36406242651626"}}, "geometry": {"type": "Point", "coordinates": [-170.5598972380183, -72.56989481217973]}}, {"type": "Feature", "properties": {"norad_id": 34678, "name": "COSMOS 2251 DEB", "group": "cosmos-2251-debris", "lat": 58.31333475764474, "lon": 31.41727499420137, "alt_km": 768.2645686461647, "timestamp": "2025-12-13T18:50:04.825273+00:00", "meta": {"OBJECT_NAME": "COSMOS 2251 DEB", "OBJECT_ID": "1993-036XY", "EPOCH": "2025-12-13T05:41:47.325984", "MEAN_MOTION": 14.30065182, "ECCENTRICITY": 0.00244246, "INCLINATION": 74.0378, "RA_OF_ASC_NODE": 4.7883, "ARG_OF_PERICENTER": 53.7593, "MEAN_ANOMALY": 71.3626, "EPHEMERIS_TYPE": 0, "CLASSIFICATION_TYPE": "U", "NORAD_CAT_ID": 34678, "ELEMENT_SET_NO": 999, "REV_AT_EPOCH": 87386, "BSTAR": 4.7367439e-05, "MEAN_MOTION_DOT": 9.7e-07, "MEAN_MOTION_DDOT": 0}, "tle": {"line1": "1 34678U 93036XY  25347.23735331  .00000097  00000+0  47367-4 0  9993", "line2": "2 34678  74.0378   4.7883 0024424  53.7593  71.3626 14.30065182873864"}}, "geometry": {"type": "Point", "coordinates": [31.41727499420137, 58.31333475764474]}}, {"type": "Feature", "properties": {"norad_id": 34680, "name": "COSMOS 2251 DEB", "group": "cosmos-2251-debris", "lat": 71.68418213597337, "lon": -111.95029950545435, "alt_km": 686.638880437592, "timestamp": "2025-12-13T18:50:04.825283+00:00", "meta": {"OBJECT_NAME": "COSMOS 2251 DEB", "OBJECT_ID": "1993-036YA", "EPOCH": "2025-12-13T02:29:39.152832", "MEAN_MOTION": 14.60632243, "ECCENTRICITY": 0.00067226, "INCLINATION": 74.0425, "RA_OF_ASC_NODE": 129.1614, "ARG_OF_PERICENTER": 226.7836, "MEAN_ANOMALY": 253.7014, "EPHEMERIS_TYPE": 0, "CLASSIFICATION_TYPE": "U", "NORAD_CAT_ID": 34680, "ELEMENT_SET_NO": 999, "REV_AT_EPOCH": 88333, "BSTAR": 0.0017902996, "MEAN_MOTION_DOT": 8.696e-05, "MEAN_MOTION_DDOT": 0}, "tle": {"line1": "1 34680U 93036YA  25347.10392538  .00008696  00000+0  17903-2 0  9994", "line2": "2 34680  74.0425 129.1614 0006722 226.7836 253.7014 14.60632243883338"}}, "geometry": {"type": "Point", "coordinates": [-111.95029950545435, 71.68418213597337]}}, {"type": "Feature", "properties": {"norad_id": 34681, "name": "COSMOS 2251 DEB", "group": "cosmos-2251-debris", "lat": 49.976875966340636, "lon": -51.77466530415124, "alt_km": 607.4059781253882, "timestamp": "2025-12-13T18:50:04.825293+00:00", "meta": {"OBJECT_NAME": "COSMOS 2251 DEB", "OBJECT_ID": "1993-036YB", "EPOCH": "2025-12-13T06:11:30.606432", "MEAN_MOTION": 14.83242328, "ECCENTRICITY": 0.00255814, "INCLINATION": 74.062, "RA_OF_ASC_NODE": 289.3719, "ARG_OF_PERICENTER": 345.9986, "MEAN_ANOMALY": 134.8905, "EPHEMERIS_TYPE": 0, "CLASSIFICATION_TYPE": "U", "NORAD_CAT_ID": 34681, "ELEMENT_SET_NO": 999, "REV_AT_EPOCH": 89278, "BSTAR": 0.0025054122, "MEAN_MOTION_DOT": 0.00020629, "MEAN_MOTION_DDOT": 0}, "tle": {"line1": "1 34681U 93036YB  25347.25799313  .00020629  00000+0  25054-2 0  9999", "line2": "2 34681  74.0620 289.3719 0025581 345.9986 134.8905 14.83242328892788"}}, "geometry": {"type": "Point", "coordinates": [-51.77466530415124, 49.976875966340636]}}]}